$$SOE
2460154.500000000, A.D. 2023-Jul-29 00:00:00.0000, -3.811055643498191E+08, -1.865134778334724E+08, -7.685055515919141E+06,
2460161.500000000, A.D. 2023-Aug-05 00:00:00.0000, -3.757979241534005E+08, -1.957957619706511E+08, -7.817208908767626E+06,
2460168.500000000, A.D. 2023-Aug-12 00:00:00.0000, -3.702507127841534E+08, -2.049532055477765E+08, -7.944375493361816E+06,
2460175.500000000, A.D. 2023-Aug-19 00:00:00.0000, -3.644665468638085E+08, -2.139794604444951E+08, -8.066454258781925E+06,
2460182.500000000, A.D. 2023-Aug-26 00:00:00.0000, -3.584482172301655E+08, -2.228682144266241E+08, -8.183346733919412E+06,
2460189.500000000, A.D. 2023-Sep-02 00:00:00.0000, -3.521986897396697E+08, -2.316131961223030E+08, -8.294957094900548E+06,
2460196.500000000, A.D. 2023-Sep-09 00:00:00.0000, -3.457211059144811E+08, -2.402081802233833E+08, -8.401192284678504E+06,
2460203.500000000, A.D. 2023-Sep-16 00:00:00.0000, -3.390187832575564E+08, -2.486469929666816E+08, -8.501962164742380E+06,
2460210.500000000, A.D. 2023-Sep-23 00:00:00.0000, -3.320952148112352E+08, -2.569235176043899E+08, -8.597179713430434E+06,
2460217.500000000, A.D. 2023-Sep-30 00:00:00.0000, -3.249540682904403E+08, -2.650316986681662E+08, -8.686761142065242E+06,
2460224.500000000, A.D. 2023-Oct-07 00:00:00.0000, -3.175991871351083E+08, -2.729655455645753E+08, -8.770625757068396E+06,
2460231.500000000, A.D. 2023-Oct-14 00:00:00.0000, -3.100345924336475E+08, -2.807191388107967E+08, -8.848695934011355E+06,
2460238.500000000, A.D. 2023-Oct-21 00:00:00.0000, -3.022644824824742E+08, -2.882866373034723E+08, -8.920897368496895E+06,
2460245.500000000, A.D. 2023-Oct-28 00:00:00.0000, -2.942932313993555E+08, -2.956622843537152E+08, -8.987159287949294E+06,
2460252.500000000, A.D. 2023-Nov-04 00:00:00.0000, -2.861253880324565E+08, -3.028404132502617E+08, -9.047414571951404E+06,
2460259.500000000, A.D. 2023-Nov-11 00:00:00.0000, -2.777656749787720E+08, -3.098154529423422E+08, -9.101599845910400E+06,
2460266.500000000, A.D. 2023-Nov-18 00:00:00.0000, -2.692189874843426E+08, -3.165819338989698E+08, -9.149655573079765E+06,
2460273.500000000, A.D. 2023-Nov-25 00:00:00.0000, -2.604903921466367E+08, -3.231344941144698E+08, -9.191526149441794E+06,
2460280.500000000, A.D. 2023-Dec-02 00:00:00.0000, -2.515851253849567E+08, -3.294678852628808E+08, -9.227160004555881E+06,
2460287.500000000, A.D. 2023-Dec-09 00:00:00.0000, -2.425085915952402E+08, -3.355769790505395E+08, -9.256509719921291E+06,
2460294.500000000, A.D. 2023-Dec-16 00:00:00.0000, -2.332663606960147E+08, -3.414567737440224E+08, -9.279532189862132E+06,
2460301.500000000, A.D. 2023-Dec-23 00:00:00.0000, -2.238641647116702E+08, -3.471024001751428E+08, -9.296188800453827E+06,
2460308.500000000, A.D. 2023-Dec-30 00:00:00.0000, -2.143078947279837E+08, -3.525091261619111E+08, -9.306445417620838E+06,
2460315.500000000, A.D. 2024-Jan-06 00:00:00.0000, -2.046035999868262E+08, -3.576723616940587E+08, -9.310272214731112E+06,
2460322.500000000, A.D. 2024-Jan-13 00:00:00.0000, -1.947574859430947E+08, -3.625876666794642E+08, -9.307643778528437E+06,
2460329.500000000, A.D. 2024-Jan-20 00:00:00.0000, -1.847759100586090E+08, -3.672507581564932E+08, -9.298539353595391E+06,
2460336.500000000, A.D. 2024-Jan-27 00:00:00.0000, -1.746653773611111E+08, -3.716575163072249E+08, -9.282942985768512E+06,
2460343.500000000, A.D. 2024-Feb-03 00:00:00.0000, -1.644325361962847E+08, -3.758039902048091E+08, -9.260843602396488E+06,
2460350.500000000, A.D. 2024-Feb-10 00:00:00.0000, -1.540841738944948E+08, -3.796864035686076E+08, -9.232235078283578E+06,
2460357.500000000, A.D. 2024-Feb-17 00:00:00.0000, -1.436272122113826E+08, -3.833011605010168E+08, -9.197116299090594E+06,
2460364.500000000, A.D. 2024-Feb-24 00:00:00.0000, -1.330687025034997E+08, -3.866448511745906E+08, -9.155491224189281E+06,
2460371.500000000, A.D. 2024-Mar-02 00:00:00.0000, -1.224158206078998E+08, -3.897142574882911E+08, -9.107368954401046E+06,
2460378.500000000, A.D. 2024-Mar-09 00:00:00.0000, -1.116758612879332E+08, -3.925063587441959E+08, -9.052763822618812E+06,
2460385.500000000, A.D. 2024-Mar-16 00:00:00.0000, -1.008562318541161E+08, -3.950183371360567E+08, -8.991695527450264E+06,
2460392.500000000, A.D. 2024-Mar-23 00:00:00.0000, -8.996444506998163E+07, -3.972475819276078E+08, -8.924189209532171E+06,
2460399.500000000, A.D. 2024-Mar-30 00:00:00.0000, -7.900811359080613E+07, -3.991916923315967E+08, -8.850275266772985E+06,
2460406.500000000, A.D. 2024-Apr-06 00:00:00.0000, -6.799494568503529E+07, -4.008484824401977E+08, -8.769989206934959E+06,
2460413.500000000, A.D. 2024-Apr-13 00:00:00.0000, -5.693273869342008E+07, -4.022159873554192E+08, -8.683371794715196E+06,
2460420.500000000, A.D. 2024-Apr-20 00:00:00.0000, -4.582937118584007E+07, -4.032924678289200E+08, -8.590469186942279E+06,
2460427.500000000, A.D. 2024-Apr-27 00:00:00.0000, -3.469279534174169E+07, -4.040764139580485E+08, -8.491332962260425E+06,
2460434.500000000, A.D. 2024-May-04 00:00:00.0000, -2.353102947599316E+07, -4.045665486267355E+08, -8.386020110515594E+06,
2460441.500000000, A.D. 2024-May-11 00:00:00.0000, -1.235215048244542E+07, -4.047618307783755E+08, -8.274593011726290E+06,
2460448.500000000, A.D. 2024-May-18 00:00:00.0000, -1.164286124458499E+06, -4.046614584846765E+08, -8.157119410171807E+06,
2460455.500000000, A.D. 2024-May-25 00:00:00.0000, 1.002439284062007E+07, -4.042648718043148E+08, -8.033672386279970E+06,
2460462.500000000, A.D. 2024-Jun-01 00:00:00.0000, 2.120568075007710E+07, -4.035717554773180E+08, -7.904330336276233E+06,
2460469.500000000, A.D. 2024-Jun-08 00:00:00.0000, 3.237134556936419E+07, -4.025820414678907E+08, -7.769176983712733E+06,
2460476.500000000, A.D. 2024-Jun-15 00:00:00.0000, 4.351313825384246E+07, -4.012959108006757E+08, -7.628301414547771E+06,
2460483.500000000, A.D. 2024-Jun-22 00:00:00.0000, 5.462280191605132E+07, -3.997137935049341E+08, -7.481797947106123E+06,
2460490.500000000, A.D. 2024-Jun-29 00:00:00.0000, 6.569207865894860E+07, -3.978363684757758E+08, -7.329765790802598E+06,
2460497.500000000, A.D. 2024-Jul-06 00:00:00.0000, 7.671271670311560E+07, -3.956645657122883E+08, -7.172308938045889E+06,
2460504.500000000, A.D. 2024-Jul-13 00:00:00.0000, 8.767647974058518E+07, -3.931995681005195E+08, -7.009536237230122E+06,
2460511.500000000, A.D. 2024-Jul-20 00:00:00.0000, 9.857515651224199E+07, -3.904428115869232E+08, -6.841561370714545E+06,
2460518.500000000, A.D. 2024-Jul-27 00:00:00.0000, 1.094005699348993E+08, -3.873959846971256E+08, -6.668502756081432E+06,
2460525.500000000, A.D. 2024-Aug-03 00:00:00.0000, 1.201445860325949E+08, -3.840610277720034E+08, -6.490483426558673E+06,
2460532.500000000, A.D. 2024-Aug-10 00:00:00.0000, 1.307991228185179E+08, -3.804401319240466E+08, -6.307630906523198E+06,
2460539.500000000, A.D. 2024-Aug-17 00:00:00.0000, 1.413561591545702E+08, -3.765357376914300E+08, -6.120077085125208E+06,
2460546.500000000, A.D. 2024-Aug-24 00:00:00.0000, 1.518077435959578E+08, -3.723505334115043E+08, -5.927958093006134E+06,
2460553.500000000, A.D. 2024-Aug-31 00:00:00.0000, 1.621460033167068E+08, -3.678874533759167E+08, -5.731414198346540E+06,
2460560.500000000, A.D. 2024-Sep-07 00:00:00.0000, 1.723631534622640E+08, -3.631496756440588E+08, -5.530589745912045E+06,
2460567.500000000, A.D. 2024-Sep-14 00:00:00.0000, 1.824515069946250E+08, -3.581406185240374E+08, -5.325633065884754E+06,
2460574.500000000, A.D. 2024-Sep-21 00:00:00.0000, 1.924034829805778E+08, -3.528639353140597E+08, -5.116696133064270E+06,
2460581.500000000, A.D. 2024-Sep-28 00:00:00.0000, 2.022116128150661E+08, -3.473235105363677E+08, -4.903934196049020E+06,
2460588.500000000, A.D. 2024-Oct-05 00:00:00.0000, 2.118685480308169E+08, -3.415234576677400E+08, -4.687505713433385E+06,
2460595.500000000, A.D. 2024-Oct-12 00:00:00.0000, 2.213670693161462E+08, -3.354681153959306E+08, -4.467572320772946E+06,
2460602.500000000, A.D. 2024-Oct-19 00:00:00.0000, 2.307000949715087E+08, -3.291620426840650E+08, -4.244298690085039E+06,
2460609.500000000, A.D. 2024-Oct-26 00:00:00.0000, 2.398606887528742E+08, -3.226100134551414E+08, -4.017852344678566E+06,
2460616.500000000, A.D. 2024-Nov-02 00:00:00.0000, 2.488420673398582E+08, -3.158170110547609E+08, -3.788403465433836E+06,
2460623.500000000, A.D. 2024-Nov-09 00:00:00.0000, 2.576376075075161E+08, -3.087882224805063E+08, -3.556124696263134E+06,
2460630.500000000, A.D. 2024-Nov-16 00:00:00.0000, 2.662408530129676E+08, -3.015290323877338E+08, -3.321190951788202E+06,
2460637.500000000, A.D. 2024-Nov-23 00:00:00.0000, 2.746455212318676E+08, -2.940450169341562E+08, -3.083779236300185E+06,
2460644.500000000, A.D. 2024-Nov-30 00:00:00.0000, 2.828455097430617E+08, -2.863419375213516E+08, -2.844068497081608E+06,
2460651.500000000, A.D. 2024-Dec-07 00:00:00.0000, 2.908349032720149E+08, -2.784257340312096E+08, -2.602239516316205E+06,
2460658.500000000, A.D. 2024-Dec-14 00:00:00.0000, 2.986079802950011E+08, -2.703025163544389E+08, -2.358474678294882E+06,
2460665.500000000, A.D. 2024-Dec-21 00:00:00.0000, 3.061592169739199E+08, -2.619785554722528E+08, -2.112957500736475E+06,
2460672.500000000, A.D. 2024-Dec-28 00:00:00.0000, 3.134832903818539E+08, -2.534602770752464E+08, -1.865872354071349E+06,
2460679.500000000, A.D. 2025-Jan-04 00:00:00.0000, 3.205750836074705E+08, -2.447542553589252E+08, -1.617404413126051E+06,
2460686.500000000, A.D. 2025-Jan-11 00:00:00.0000, 3.274296909110274E+08, -2.358672053538200E+08, -1.367739538711652E+06,
2460693.500000000, A.D. 2025-Jan-18 00:00:00.0000, 3.340424220100980E+08, -2.268059747278193E+08, -1.117064080241963E+06,
2460700.500000000, A.D. 2025-Jan-25 00:00:00.0000, 3.404088057344025E+08, -2.175775355541013E+08, -8.655646606570929E+05,
2460707.500000000, A.D. 2025-Feb-01 00:00:00.0000, 3.465245932363758E+08, -2.081889760936816E+08, -6.134279636414796E+05,
2460714.500000000, A.D. 2025-Feb-08 00:00:00.0000, 3.523857608142549E+08, -1.986474925919941E+08, -3.608405270285457E+05,
$$EOE